     3.04           N: GNSS NAV DATA    M: MIXED            RINEX VERSION / TYPE
ssrcrin-15.6.1x                         20250101 084600 UTC PGM / RUN BY / DATE 
    18                                                      LEAP SECONDS        
                                                            END OF HEADER       
S23 2025 01 01 08 45 52 0.000000000000E+00 0.000000000000E+00 2.907600000000E+05
     3.866796400000E+04 0.000000000000E+00 0.000000000000E+00 6.300000000000E+01
     1.681330800000E+04 0.000000000000E+00 0.000000000000E+00 3.276700000000E+04
     0.000000000000E+00 0.000000000000E+00 0.000000000000E+00 2.370000000000E+02
E08 2025 01 01 08 30 00-3.932959516533E-04-6.195932655828E-12 0.000000000000E+00
     1.020000000000E+02-1.633125000000E+02 2.750471711044E-09 7.110459708330E-01
    -7.465481758118E-06 1.743907341734E-04 1.167878508568E-05 5.440621500015E+03
     2.898000000000E+05 2.607703208923E-08 3.141414838823E-01 6.519258022308E-08
     9.694202933892E-01 9.418750000000E+01 6.462249601949E-01-5.203431029503E-09
     3.128701751558E-10 5.170000000000E+02 2.347000000000E+03
     3.120000000000E+00 0.000000000000E+00-5.820766091347E-09-5.820766091347E-09
     2.907950000000E+05
E08 2025 01 01 08 30 00-3.932962426916E-04-6.195932655828E-12 0.000000000000E+00
     1.020000000000E+02-1.633125000000E+02 2.750471711044E-09 7.110459708330E-01
    -7.465481758118E-06 1.743907341734E-04 1.167878508568E-05 5.440621500015E+03
     2.898000000000E+05 2.607703208923E-08 3.141414838823E-01 6.519258022308E-08
     9.694202933892E-01 9.418750000000E+01 6.462249601949E-01-5.203431029503E-09
     3.128701751558E-10 2.580000000000E+02 2.347000000000E+03
     3.120000000000E+00 0.000000000000E+00-5.820766091347E-09 0.000000000000E+00
     2.908400000000E+05
C33 2025 01 01 08 00 00-9.472541278228E-04-2.300382107023E-13 0.000000000000E+00
     1.000000000000E+00-1.652031250000E+02 3.287279785541E-09 8.004695945659E-01
    -8.155591785908E-06 2.800659276545E-04 6.294809281826E-06 5.282644458771E+03
     2.880000000000E+05-8.800998330116E-08-3.077524159234E-01 8.847564458847E-09
     9.805482664911E-01 2.431093750000E+02-1.703538625507E-01-6.595631877399E-09
    -2.496532562031E-10 0.000000000000E+00 9.910000000000E+02 0.000000000000E+00
     2.000000000000E+00 0.000000000000E+00-4.440000000000E-08-4.440000000000E-08
     2.908380000000E+05 1.000000000000E+00
S23 2025 01 01 08 48 00 0.000000000000E+00 0.000000000000E+00 2.908870000000E+05
     3.866796400000E+04 0.000000000000E+00 0.000000000000E+00 6.300000000000E+01
     1.681330800000E+04 0.000000000000E+00 0.000000000000E+00 3.276700000000E+04
     0.000000000000E+00 0.000000000000E+00 0.000000000000E+00 2.380000000000E+02
S23 2025 01 01 08 50 08 0.000000000000E+00 0.000000000000E+00 2.910150000000E+05
     3.866796400000E+04 0.000000000000E+00 0.000000000000E+00 6.300000000000E+01
     1.681330800000E+04 0.000000000000E+00 0.000000000000E+00 3.276700000000E+04
     0.000000000000E+00 0.000000000000E+00 0.000000000000E+00 2.390000000000E+02
E03 2025 01 01 08 40 00-1.637054956518E-04-2.529532139306E-12 0.000000000000E+00
     1.030000000000E+02-1.736250000000E+02 2.737256874879E-09 1.263779904957E+00
    -7.964670658112E-06 2.416702918708E-04 1.198239624500E-05 5.440621208191E+03
     2.904000000000E+05-2.607703208923E-08 3.132898636775E-01 2.980232238770E-08
     9.635825290343E-01 8.400000000000E+01 9.427554441770E-01-5.194502086148E-09
     3.321566928024E-10 5.170000000000E+02 2.347000000000E+03
     3.120000000000E+00 0.000000000000E+00 6.984919309616E-10 1.629814505577E-09
     2.910650000000E+05
E25 2025 01 01 08 40 00 1.283566234633E-05 3.694822225953E-13 0.000000000000E+00
     1.030000000000E+02-1.418750000000E+01 3.274422107110E-09 5.112419698401E-01
    -5.941838026047E-07 2.109986962751E-04 6.841495633125E-06 5.440600242615E+03
     2.904000000000E+05-6.332993507385E-08 2.413695374752E+00 7.450580596924E-09
     9.642552050997E-01 1.964375000000E+02 3.856492472905E-01-5.382724212069E-09
    -6.514557071737E-10 5.170000000000E+02 2.347000000000E+03
     3.120000000000E+00 0.000000000000E+00 2.328306436539E-10 1.164153218269E-09
     2.910650000000E+05
E08 2025 01 01 08 40 00-3.932996769436E-04-6.195932655828E-12 0.000000000000E+00
     1.030000000000E+02-1.662500000000E+02 2.737614032613E-09 7.829732786656E-01
    -7.601454854012E-06 1.744583714753E-04 1.177005469799E-05 5.440622358322E+03
     2.904000000000E+05 1.490116119385E-08 3.141383034984E-01 6.705522537231E-08
     9.694204616248E-01 9.221875000000E+01 6.486828410441E-01-5.199502294427E-09
     3.185846989029E-10 5.170000000000E+02 2.347000000000E+03
     3.120000000000E+00 0.000000000000E+00-5.820766091347E-09-5.820766091347E-09
     2.910650000000E+05
E02 2025 01 01 08 40 00 1.866966485977E-04 2.884803507186E-12 0.000000000000E+00
     1.030000000000E+02-1.615625000000E+01 3.351568177696E-09-5.782960868904E-01
    -7.711350917816E-07 5.100349662825E-04 6.567686796188E-06 5.440609230042E+03
     2.904000000000E+05 4.470348358154E-08 2.416854413219E+00 4.284083843231E-08
     9.646489992400E-01 2.003750000000E+02 6.863640968368E-01-5.456655863048E-09
    -6.157399337540E-10 5.170000000000E+02 2.347000000000E+03
     3.120000000000E+00 0.000000000000E+00-3.958120942116E-09-3.958120942116E-09
     2.910650000000E+05
S23 2025 01 01 08 52 16 0.000000000000E+00 0.000000000000E+00 2.911390000000E+05
     3.866796400000E+04 0.000000000000E+00 0.000000000000E+00 6.300000000000E+01
     1.681330800000E+04 0.000000000000E+00 0.000000000000E+00 3.276700000000E+04
     0.000000000000E+00 0.000000000000E+00 0.000000000000E+00 2.400000000000E+02
E03 2025 01 01 08 40 00-1.637067180127E-04-2.529532139306E-12 0.000000000000E+00
     1.030000000000E+02-1.736250000000E+02 2.737256874879E-09 1.263779904957E+00
    -7.964670658112E-06 2.416702918708E-04 1.198239624500E-05 5.440621208191E+03
     2.904000000000E+05-2.607703208923E-08 3.132898636775E-01 2.980232238770E-08
     9.635825290343E-01 8.400000000000E+01 9.427554441770E-01-5.194502086148E-09
     3.321566928024E-10 2.580000000000E+02 2.347000000000E+03
     3.120000000000E+00 0.000000000000E+00 6.984919309616E-10 0.000000000000E+00
     2.911400000000E+05
E25 2025 01 01 08 40 00 1.283438177779E-05 3.694822225953E-13 0.000000000000E+00
     1.030000000000E+02-1.418750000000E+01 3.274422107110E-09 5.112419698401E-01
    -5.941838026047E-07 2.109986962751E-04 6.841495633125E-06 5.440600242615E+03
     2.904000000000E+05-6.332993507385E-08 2.413695374752E+00 7.450580596924E-09
     9.642552050997E-01 1.964375000000E+02 3.856492472905E-01-5.382724212069E-09
    -6.514557071737E-10 2.580000000000E+02 2.347000000000E+03
     3.120000000000E+00 0.000000000000E+00 2.328306436539E-10 0.000000000000E+00
     2.911400000000E+05
E08 2025 01 01 08 40 00-3.932999097742E-04-6.195932655828E-12 0.000000000000E+00
     1.030000000000E+02-1.662500000000E+02 2.737614032613E-09 7.829732786656E-01
    -7.601454854012E-06 1.744583714753E-04 1.177005469799E-05 5.440622358322E+03
     2.904000000000E+05 1.490116119385E-08 3.141383034984E-01 6.705522537231E-08
     9.694204616248E-01 9.221875000000E+01 6.486828410441E-01-5.199502294427E-09
     3.185846989029E-10 2.580000000000E+02 2.347000000000E+03
     3.120000000000E+00 0.000000000000E+00-5.820766091347E-09 0.000000000000E+00
     2.911400000000E+05
E02 2025 01 01 08 40 00 1.866966485977E-04 2.884803507186E-12 0.000000000000E+00
     1.030000000000E+02-1.615625000000E+01 3.351568177696E-09-5.782960868904E-01
    -7.711350917816E-07 5.100349662825E-04 6.567686796188E-06 5.440609230042E+03
     2.904000000000E+05 4.470348358154E-08 2.416854413219E+00 4.284083843231E-08
     9.646489992400E-01 2.003750000000E+02 6.863640968368E-01-5.456655863048E-09
    -6.157399337540E-10 2.580000000000E+02 2.347000000000E+03
     3.120000000000E+00 0.000000000000E+00-3.958120942116E-09 0.000000000000E+00
     2.911400000000E+05
S23 2025 01 01 08 54 24 0.000000000000E+00 0.000000000000E+00 2.912660000000E+05
     3.866796400000E+04 0.000000000000E+00 0.000000000000E+00 6.300000000000E+01
     1.681330800000E+04 0.000000000000E+00 0.000000000000E+00 3.276700000000E+04
     0.000000000000E+00 0.000000000000E+00 0.000000000000E+00 2.410000000000E+02
E07 2025 01 01 08 40 00-1.612459309399E-04-1.918465386552E-12 0.000000000000E+00
     1.030000000000E+02-1.576250000000E+02 2.854761769429E-09 9.621968735105E-01
    -7.223337888718E-06 1.260404242203E-04 1.121684908867E-05 5.440617504120E+03
     2.904000000000E+05 4.842877388000E-08 3.133602315000E-01-2.793967723846E-08
     9.636235097585E-01 1.002187500000E+02-3.192527543415E-01-5.250933008151E-09
     2.653681965077E-10 5.170000000000E+02 2.347000000000E+03
     3.120000000000E+00 0.000000000000E+00 3.026798367500E-09 4.190951585770E-09
     2.913230000000E+05
S23 2025 01 01 08 56 16 0.000000000000E+00 0.000000000000E+00 2.913910000000E+05
     3.866796400000E+04 0.000000000000E+00 0.000000000000E+00 6.300000000000E+01
     1.681330800000E+04 0.000000000000E+00 0.000000000000E+00 3.276700000000E+04
     0.000000000000E+00 0.000000000000E+00 0.000000000000E+00 2.420000000000E+02
R03 2025 01 01 08 45 00 1.142444089055E-04 9.094947017729E-13 2.914200000000E+05
    -8.127790039062E+03 1.783556938171E+00-1.862645149231E-09 0.000000000000E+00
    -1.681676123047E+04 1.577889442444E+00-4.656612873077E-09 5.000000000000E+00
     1.745466308594E+04 2.351091384888E+00 9.313225746155E-10 0.000000000000E+00
E07 2025 01 01 08 40 00-1.612473861314E-04-1.918465386552E-12 0.000000000000E+00
     1.030000000000E+02-1.576250000000E+02 2.854761769429E-09 9.621968735105E-01
    -7.223337888718E-06 1.260404242203E-04 1.121684908867E-05 5.440617504120E+03
     2.904000000000E+05 4.842877388000E-08 3.133602315000E-01-2.793967723846E-08
     9.636235097585E-01 1.002187500000E+02-3.192527543415E-01-5.250933008151E-09
     2.653681965077E-10 2.580000000000E+02 2.347000000000E+03
     3.120000000000E+00 0.000000000000E+00 3.026798367500E-09 0.000000000000E+00
     2.914600000000E+05
S23 2025 01 01 08 58 24 0.000000000000E+00 0.000000000000E+00 2.915170000000E+05
     3.866796400000E+04 0.000000000000E+00 0.000000000000E+00 6.300000000000E+01
     1.681330800000E+04 0.000000000000E+00 0.000000000000E+00 3.276700000000E+04
     0.000000000000E+00 0.000000000000E+00 0.000000000000E+00 2.430000000000E+02
G17 2025 01 01 10 00 00 4.940931685269E-04-1.682565198280E-11 0.000000000000E+00
     5.400000000000E+01 1.002500000000E+02 3.837659853937E-09 1.837202201269E+00
     5.189329385757E-06 1.338870858308E-02 1.092255115509E-05 5.153607915878E+03
     2.952000000000E+05 2.831220626831E-07-2.850176241555E+00-7.078051567078E-08
     9.660348347027E-01 1.654687500000E+02-1.246565496297E+00-7.411380142303E-09
    -2.946551307118E-10 1.000000000000E+00 2.347000000000E+03 0.000000000000E+00
     2.000000000000E+00 0.000000000000E+00-1.071020960808E-08 5.400000000000E+01
     2.915280000000E+05 4.000000000000E+00
